ORBCOMM FM37            
1 33064U 08031E   24183.52716122  .00002200  00000+0  33988-3 0  9999
2 33064  48.4384 207.1013 0006623 312.8090 206.3599 14.76735030862481
ORBCOMM FM40            
1 33065U 08031F   24183.47448544  .00003282  00000+0  47695-3 0  9995
2 33065  48.4405 196.2080 0007891 322.3263 190.5891 14.78127837862205
VESSELSAT 1             
1 37840U 11058C   24183.33217547  .00000431  00000+0  90941-4 0  9991
2 37840  19.9631  56.6313 0013598 287.5786  72.3133 14.11170225656680
ORBCOMM FM109           
1 40086U 14040A   24183.56566836  .00000997  00000+0  25791-3 0  9991
2 40086  47.0026 230.6263 0001378 183.4060 176.6816 14.56779435529914
ORBCOMM FM107           
1 40087U 14040B   24183.53095375  .00001102  00000+0  28096-3 0  9994
2 40087  47.0043 231.7598 0000312 152.4501 207.6401 14.56791524529985
ORBCOMM FM106           
1 40088U 14040C   24183.42492902  .00001968  00000+0  37745-3 0  9991
2 40088  47.0608  81.5422 0018151 239.0175 120.8932 14.67241117531921
ORBCOMM FM111           
1 40089U 14040D   24183.54101893  .00003763  00000+0  48898-3 0  9997
2 40089  47.0050 335.8183 0033404 315.6061  44.2158 14.82143298538132
ORBCOMM FM104           
1 40090U 14040E   24183.55591822  .00001124  00000+0  29526-3 0  9991
2 40090  47.0052 261.1445 0016242  40.7644 319.4452 14.55266632529527
